{
  "type": "FeatureCollection",
  "features": [
    {
      "type": "Feature",
      "properties": {
        "norad_id": 31381,
        "name": "FENGYUN 1C DEB",
        "group": "fengyun-1c-debris",
        "lat": 43.8014930986635,
        "lon": 76.21564947191231,
        "alt_km": 683.0873058168208,
        "timestamp": "2025-12-27T05:29:39.485086+00:00",
        "meta_object_name": "FENGYUN 1C DEB",
        "meta_object_id": "1999-025BSM",
        "meta_epoch": "2025-12-25T11:31:13.278720",
        "meta_mean_motion": 14.37075498,
        "meta_eccentricity": 0.0197793,
        "meta_inclination": 98.4914,
        "meta_ra_of_asc_node": 82.7259,
        "meta_arg_of_pericenter": 353.9152,
        "meta_mean_anomaly": 5.9634,
        "meta_ephemeris_type": 0,
        "meta_classification_type": "U",
        "meta_norad_cat_id": 31381,
        "meta_element_set_no": 999,
        "meta_rev_at_epoch": 97583,
        "meta_bstar": 0.00034323,
        "meta_mean_motion_dot": 1.225e-05,
        "meta_mean_motion_ddot": 0,
        "tle_line1": "1 31381U 99025BSM 25359.48001480  .00001225  00000+0  34323-3 0  9997",
        "tle_line2": "2 31381  98.4914  82.7259 0197793 353.9152   5.9634 14.37075498975837"
      },
      "geometry": {
        "type": "Point",
        "coordinates": [
          76.21564947191231,
          43.8014930986635
        ]
      }
    },
    {
      "type": "Feature",
      "properties": {
        "norad_id": 31383,
        "name": "FENGYUN 1C DEB",
        "group": "fengyun-1c-debris",
        "lat": -61.411388648074414,
        "lon": -133.86746357458037,
        "alt_km": 816.2654710672887,
        "timestamp": "2025-12-27T05:29:39.485096+00:00",
        "meta_object_name": "FENGYUN 1C DEB",
        "meta_object_id": "1999-025BSP",
        "meta_epoch": "2025-12-17T10:22:17.465376",
        "meta_mean_motion": 14.05711597,
        "meta_eccentricity": 0.01077198,
        "meta_inclination": 99.0662,
        "meta_ra_of_asc_node": 53.3693,
        "meta_arg_of_pericenter": 304.1704,
        "meta_mean_anomaly": 68.9908,
        "meta_ephemeris_type": 0,
        "meta_classification_type": "U",
        "meta_norad_cat_id": 31383,
        "meta_element_set_no": 999,
        "meta_rev_at_epoch": 95435,
        "meta_bstar": 0.00049128566,
        "meta_mean_motion_dot": 7.98e-06,
        "meta_mean_motion_ddot": 0,
        "tle_line1": "1 31383U 99025BSP 25351.43214659  .00000798  00000+0  49129-3 0  9994",
        "tle_line2": "2 31383  99.0662  53.3693 0107719 304.1704  68.9908 14.05711597954351"
      },
      "geometry": {
        "type": "Point",
        "coordinates": [
          -133.86746357458037,
          -61.411388648074414
        ]
      }
    },
    {
      "type": "Feature",
      "properties": {
        "norad_id": 31384,
        "name": "FENGYUN 1C DEB",
        "group": "fengyun-1c-debris",
        "lat": 3.7973186960994885,
        "lon": -34.61956833089616,
        "alt_km": 622.1119692292086,
        "timestamp": "2025-12-27T05:29:39.485106+00:00",
        "meta_object_name": "FENGYUN 1C DEB",
        "meta_object_id": "1999-025BSQ",
        "meta_epoch": "2025-12-26T20:56:47.404032",
        "meta_mean_motion": 13.863172,
        "meta_eccentricity": 0.04398279,
        "meta_inclination": 98.4563,
        "meta_ra_of_asc_node": 325.6231,
        "meta_arg_of_pericenter": 2.9158,
        "meta_mean_anomaly": 24.3516,
        "meta_ephemeris_type": 0,
        "meta_classification_type": "U",
        "meta_norad_cat_id": 31384,
        "meta_element_set_no": 999,
        "meta_rev_at_epoch": 93220,
        "meta_bstar": 0.0037538809,
        "meta_mean_motion_dot": 9.306e-05,
        "meta_mean_motion_ddot": 0,
        "tle_line1": "1 31384U 99025BSQ 25360.87277088  .00009306  00000+0  37539-2 0  9993",
        "tle_line2": "2 31384  98.4563 325.6231 0439827   2.9158  24.3516 13.86317200932204"
      },
      "geometry": {
        "type": "Point",
        "coordinates": [
          -34.61956833089616,
          3.7973186960994885
        ]
      }
    },
    {
      "type": "Feature",
      "properties": {
        "norad_id": 31385,
        "name": "FENGYUN 1C DEB",
        "group": "fengyun-1c-debris",
        "lat": -71.62880231833186,
        "lon": 120.47770825772386,
        "alt_km": 745.4125338411877,
        "timestamp": "2025-12-27T05:29:39.485116+00:00",
        "meta_object_name": "FENGYUN 1C DEB",
        "meta_object_id": "1999-025BSR",
        "meta_epoch": "2025-12-24T00:27:59.984928",
        "meta_mean_motion": 14.44009849,
        "meta_eccentricity": 0.0134107,
        "meta_inclination": 98.9532,
        "meta_ra_of_asc_node": 88.7608,
        "meta_arg_of_pericenter": 22.1757,
        "meta_mean_anomaly": 150.7267,
        "meta_ephemeris_type": 0,
        "meta_classification_type": "U",
        "meta_norad_cat_id": 31385,
        "meta_element_set_no": 999,
        "meta_rev_at_epoch": 98777,
        "meta_bstar": 0.0001309881,
        "meta_mean_motion_dot": 4.45e-06,
        "meta_mean_motion_ddot": 0,
        "tle_line1": "1 31385U 99025BSR 25358.01944427  .00000445  00000+0  13099-3 0  9996",
        "tle_line2": "2 31385  98.9532  88.7608 0134107  22.1757 150.7267 14.44009849987774"
      },
      "geometry": {
        "type": "Point",
        "coordinates": [
          120.47770825772386,
          -71.62880231833186
        ]
      }
    },
    {
      "type": "Feature",
      "properties": {
        "norad_id": 31386,
        "name": "FENGYUN 1C DEB",
        "group": "fengyun-1c-debris",
        "lat": -20.893811047515083,
        "lon": -168.5373442407482,
        "alt_km": 840.9461055681613,
        "timestamp": "2025-12-27T05:29:39.485127+00:00",
        "meta_object_name": "FENGYUN 1C DEB",
        "meta_object_id": "1999-025BSS",
        "meta_epoch": "2025-12-26T23:18:45.937728",
        "meta_mean_motion": 13.86098372,
        "meta_eccentricity": 0.01982085,
        "meta_inclination": 98.4389,
        "meta_ra_of_asc_node": 14.479,
        "meta_arg_of_pericenter": 245.2647,
        "meta_mean_anomaly": 112.7769,
        "meta_ephemeris_type": 0,
        "meta_classification_type": "U",
        "meta_norad_cat_id": 31386,
        "meta_element_set_no": 999,
        "meta_rev_at_epoch": 94059,
        "meta_bstar": 0.0021077289,
        "meta_mean_motion_dot": 2.795e-05,
        "meta_mean_motion_ddot": 0,
        "tle_line1": "1 31386U 99025BSS 25360.97136502  .00002795  00000+0  21077-2 0  9996",
        "tle_line2": "2 31386  98.4389  14.4790 0198208 245.2647 112.7769 13.86098372940594"
      },
      "geometry": {
        "type": "Point",
        "coordinates": [
          -168.5373442407482,
          -20.893811047515083
        ]
      }
    },
    {
      "type": "Feature",
      "properties": {
        "norad_id": 31387,
        "name": "FENGYUN 1C DEB",
        "group": "fengyun-1c-debris",
        "lat": -17.854221866040223,
        "lon": 57.085324970678215,
        "alt_km": 781.3157620836109,
        "timestamp": "2025-12-27T05:29:39.485137+00:00",
        "meta_object_name": "FENGYUN 1C DEB",
        "meta_object_id": "1999-025BST",
        "meta_epoch": "2025-12-26T21:47:15.378432",
        "meta_mean_motion": 14.13583169,
        "meta_eccentricity": 0.02422789,
        "meta_inclination": 99.1675,
        "meta_ra_of_asc_node": 239.7376,
        "meta_arg_of_pericenter": 131.4276,
        "meta_mean_anomaly": 230.7991,
        "meta_ephemeris_type": 0,
        "meta_classification_type": "U",
        "meta_norad_cat_id": 31387,
        "meta_element_set_no": 999,
        "meta_rev_at_epoch": 96497,
        "meta_bstar": 0.00020424355,
        "meta_mean_motion_dot": 4.62e-06,
        "meta_mean_motion_ddot": 0,
        "tle_line1": "1 31387U 99025BST 25360.90781688  .00000462  00000+0  20424-3 0  9996",
        "tle_line2": "2 31387  99.1675 239.7376 0242278 131.4276 230.7991 14.13583169964974"
      },
      "geometry": {
        "type": "Point",
        "coordinates": [
          57.085324970678215,
          -17.854221866040223
        ]
      }
    },
    {
      "type": "Feature",
      "properties": {
        "norad_id": 31388,
        "name": "FENGYUN 1C DEB",
        "group": "fengyun-1c-debris",
        "lat": 79.94312868578757,
        "lon": -130.2453842330363,
        "alt_km": 846.3029826937063,
        "timestamp": "2025-12-27T05:29:39.485148+00:00",
        "meta_object_name": "FENGYUN 1C DEB",
        "meta_object_id": "1999-025BSU",
        "meta_epoch": "2025-12-26T19:22:44.155200",
        "meta_mean_motion": 14.07433102,
        "meta_eccentricity": 0.0047211,
        "meta_inclination": 98.806,
        "meta_ra_of_asc_node": 348.4114,
        "meta_arg_of_pericenter": 161.3053,
        "meta_mean_anomaly": 319.723,
        "meta_ephemeris_type": 0,
        "meta_classification_type": "U",
        "meta_norad_cat_id": 31388,
        "meta_element_set_no": 999,
        "meta_rev_at_epoch": 96639,
        "meta_bstar": 7.9062115e-05,
        "meta_mean_motion_dot": 9.2e-07,
        "meta_mean_motion_ddot": 0,
        "tle_line1": "1 31388U 99025BSU 25360.80745550  .00000092  00000+0  79062-4 0  9996",
        "tle_line2": "2 31388  98.8060 348.4114 0047211 161.3053 319.7230 14.07433102966398"
      },
      "geometry": {
        "type": "Point",
        "coordinates": [
          -130.2453842330363,
          79.94312868578757
        ]
      }
    }
  ]
}